start=new Date('2021-08-27T00:00:00.000Z').valueOf();
sats=[{"ECCENTRICITY":"0.00053460","ARG_OF_PERICENTER":"132.6001","MEAN_ANOMALY":"44.0796","GP_ID":"183499163","SITE":"AFETR","FILE":"3103480","ELEMENT_SET_NO":"999","MEAN_MOTION_DDOT":"0.0000000000000","NORAD_CAT_ID":"48881","MEAN_MOTION_DOT":"-0.00068156","EPOCH":"2021-08-26T22:00:03.000096","OBJECT_TYPE":"PAYLOAD","DECAY_DATE":null,"TLE_LINE1":"1 48881U 21059C   21238.91670139 -.00068156  00000-0 -35785-2 0  9996","MEAN_ELEMENT_THEORY":"SGP4","LAUNCH_DATE":"2021-06-30","SEMIMAJOR_AXIS":"6896.038","TLE_LINE2":"2 48881  97.5191   7.1237 0005346 132.6001  44.0796 15.16014353  3590","CLASSIFICATION_TYPE":"U","REF_FRAME":"TEME","RCS_SIZE":"LARGE","APOAPSIS":"521.589","EPHEMERIS_TYPE":"0","PERIOD":"94.986","INCLINATION":"97.5191","OBJECT_NAME":"STARLINK-3005","COUNTRY_CODE":"US","TIME_SYSTEM":"UTC","OBJECT_ID":"2021-059C","REV_AT_EPOCH":"359","BSTAR":"-0.00357850000000","RA_OF_ASC_NODE":"7.1237","MEAN_MOTION":"15.16014353","PERIAPSIS":"514.216","CENTER_NAME":"EARTH"}];
